{
  "type": "FeatureCollection",
  "features": [
    {
      "type": "Feature",
      "properties": {
        "norad_id": 66319,
        "name": "STARLINK-35442",
        "group": "last-30-days",
        "lat": 40.797574771782344,
        "lon": 135.5105323684217,
        "alt_km": 437.7639078424427,
        "timestamp": "2025-12-06T05:40:08.009199+00:00",
        "meta_object_name": "STARLINK-35442",
        "meta_object_id": "2025-253A",
        "meta_epoch": "2025-12-04T11:12:12.627648",
        "meta_mean_motion": 15.40680264,
        "meta_eccentricity": 0.0001636,
        "meta_inclination": 43.0027,
        "meta_ra_of_asc_node": 33.5509,
        "meta_arg_of_pericenter": 271.7121,
        "meta_mean_anomaly": 88.3548,
        "meta_ephemeris_type": 0,
        "meta_classification_type": "U",
        "meta_norad_cat_id": 66319,
        "meta_element_set_no": 999,
        "meta_rev_at_epoch": 564,
        "meta_bstar": 0.002125,
        "meta_mean_motion_dot": 0.0008945,
        "meta_mean_motion_ddot": 0,
        "tle_line1": "1 66319U 25253A   25338.46681282  .00089450  00000+0  21250-2 0  9997",
        "tle_line2": "2 66319  43.0027  33.5509 0001636 271.7121  88.3548 15.40680264  5642"
      },
      "geometry": {
        "type": "Point",
        "coordinates": [
          135.5105323684217,
          40.797574771782344
        ]
      }
    },
    {
      "type": "Feature",
      "properties": {
        "norad_id": 66320,
        "name": "STARLINK-34616",
        "group": "last-30-days",
        "lat": -42.490443739288644,
        "lon": -56.47814128979044,
        "alt_km": 451.2367697847849,
        "timestamp": "2025-12-06T05:40:08.009264+00:00",
        "meta_object_name": "STARLINK-34616",
        "meta_object_id": "2025-253B",
        "meta_epoch": "2025-12-05T06:00:02.000160",
        "meta_mean_motion": 15.41575778,
        "meta_eccentricity": 0.00014037,
        "meta_inclination": 43.0007,
        "meta_ra_of_asc_node": 28.6183,
        "meta_arg_of_pericenter": 285.5578,
        "meta_mean_anomaly": 277.4456,
        "meta_ephemeris_type": 0,
        "meta_classification_type": "U",
        "meta_norad_cat_id": 66320,
        "meta_element_set_no": 999,
        "meta_rev_at_epoch": 592,
        "meta_bstar": -0.031992193,
        "meta_mean_motion_dot": -0.01246124,
        "meta_mean_motion_ddot": 0,
        "tle_line1": "1 66320U 25253B   25339.25002315 -.01246124  00000+0 -31992-1 0  9990",
        "tle_line2": "2 66320  43.0007  28.6183 0001403 285.5578 277.4456 15.41575778  5920"
      },
      "geometry": {
        "type": "Point",
        "coordinates": [
          -56.47814128979044,
          -42.490443739288644
        ]
      }
    },
    {
      "type": "Feature",
      "properties": {
        "norad_id": 66321,
        "name": "STARLINK-34615",
        "group": "last-30-days",
        "lat": -29.82342548059506,
        "lon": -15.993253710949745,
        "alt_km": 417.43354124837333,
        "timestamp": "2025-12-06T05:40:08.009282+00:00",
        "meta_object_name": "STARLINK-34615",
        "meta_object_id": "2025-253C",
        "meta_epoch": "2025-12-05T06:00:02.000160",
        "meta_mean_motion": 15.50599059,
        "meta_eccentricity": 0.00013383,
        "meta_inclination": 43.0006,
        "meta_ra_of_asc_node": 27.7395,
        "meta_arg_of_pericenter": 268.1382,
        "meta_mean_anomaly": 293.7592,
        "meta_ephemeris_type": 0,
        "meta_classification_type": "U",
        "meta_norad_cat_id": 66321,
        "meta_element_set_no": 999,
        "meta_rev_at_epoch": 577,
        "meta_bstar": -0.0014680735,
        "meta_mean_motion_dot": -0.00085591,
        "meta_mean_motion_ddot": 0,
        "tle_line1": "1 66321U 25253C   25339.25002315 -.00085591  00000+0 -14681-2 0  9996",
        "tle_line2": "2 66321  43.0006  27.7395 0001338 268.1382 293.7592 15.50599059  5775"
      },
      "geometry": {
        "type": "Point",
        "coordinates": [
          -15.993253710949745,
          -29.82342548059506
        ]
      }
    },
    {
      "type": "Feature",
      "properties": {
        "norad_id": 66322,
        "name": "STARLINK-35292",
        "group": "last-30-days",
        "lat": 24.123032098598458,
        "lon": 174.54164302123056,
        "alt_km": 440.31816930722925,
        "timestamp": "2025-12-06T05:40:08.009296+00:00",
        "meta_object_name": "STARLINK-35292",
        "meta_object_id": "2025-253D",
        "meta_epoch": "2025-12-05T07:16:08.273856",
        "meta_mean_motion": 15.40641042,
        "meta_eccentricity": 0.00012102,
        "meta_inclination": 43.0003,
        "meta_ra_of_asc_node": 28.6428,
        "meta_arg_of_pericenter": 268.8,
        "meta_mean_anomaly": 91.2718,
        "meta_ephemeris_type": 0,
        "meta_classification_type": "U",
        "meta_norad_cat_id": 66322,
        "meta_element_set_no": 999,
        "meta_rev_at_epoch": 577,
        "meta_bstar": 0.0026767576,
        "meta_mean_motion_dot": 0.00112959,
        "meta_mean_motion_ddot": 0,
        "tle_line1": "1 66322U 25253D   25339.30287354  .00112959  00000+0  26768-2 0  9997",
        "tle_line2": "2 66322  43.0003  28.6428 0001210 268.8000  91.2718 15.40641042  5773"
      },
      "geometry": {
        "type": "Point",
        "coordinates": [
          174.54164302123056,
          24.123032098598458
        ]
      }
    },
    {
      "type": "Feature",
      "properties": {
        "norad_id": 66323,
        "name": "STARLINK-35309",
        "group": "last-30-days",
        "lat": 2.3141230540826503,
        "lon": 25.211802390220637,
        "alt_km": 411.90491478547756,
        "timestamp": "2025-12-06T05:40:08.009308+00:00",
        "meta_object_name": "STARLINK-35309",
        "meta_object_id": "2025-253E",
        "meta_epoch": "2025-12-04T11:55:34.293216",
        "meta_mean_motion": 15.50737349,
        "meta_eccentricity": 0.0003796,
        "meta_inclination": 43.0008,
        "meta_ra_of_asc_node": 32.9093,
        "meta_arg_of_pericenter": 268.5168,
        "meta_mean_anomaly": 91.5257,
        "meta_ephemeris_type": 0,
        "meta_classification_type": "U",
        "meta_norad_cat_id": 66323,
        "meta_element_set_no": 999,
        "meta_rev_at_epoch": 565,
        "meta_bstar": 0.0030261,
        "meta_mean_motion_dot": 0.00182433,
        "meta_mean_motion_ddot": 0,
        "tle_line1": "1 66323U 25253E   25338.49692469  .00182433  00000+0  30261-2 0  9991",
        "tle_line2": "2 66323  43.0008  32.9093 0003796 268.5168  91.5257 15.50737349  5653"
      },
      "geometry": {
        "type": "Point",
        "coordinates": [
          25.211802390220637,
          2.3141230540826503
        ]
      }
    },
    {
      "type": "Feature",
      "properties": {
        "norad_id": 66324,
        "name": "STARLINK-35506",
        "group": "last-30-days",
        "lat": -4.427209367514406,
        "lon": 17.980739175984304,
        "alt_km": 414.6174378843307,
        "timestamp": "2025-12-06T05:40:08.009347+00:00",
        "meta_object_name": "STARLINK-35506",
        "meta_object_id": "2025-253F",
        "meta_epoch": "2025-12-03T12:46:12.432576",
        "meta_mean_motion": 15.5059009,
        "meta_eccentricity": 8.705e-05,
        "meta_inclination": 43.0006,
        "meta_ra_of_asc_node": 38.5692,
        "meta_arg_of_pericenter": 276.2742,
        "meta_mean_anomaly": 83.8019,
        "meta_ephemeris_type": 0,
        "meta_classification_type": "U",
        "meta_norad_cat_id": 66324,
        "meta_element_set_no": 999,
        "meta_rev_at_epoch": 550,
        "meta_bstar": 0.00045167229,
        "meta_mean_motion_dot": 0.00026255,
        "meta_mean_motion_ddot": 0,
        "tle_line1": "1 66324U 25253F   25337.53208834  .00026255  00000+0  45167-3 0  9996",
        "tle_line2": "2 66324  43.0006  38.5692 0000870 276.2742  83.8019 15.50590090  5507"
      },
      "geometry": {
        "type": "Point",
        "coordinates": [
          17.980739175984304,
          -4.427209367514406
        ]
      }
    },
    {
      "type": "Feature",
      "properties": {
        "norad_id": 66325,
        "name": "STARLINK-35504",
        "group": "last-30-days",
        "lat": -31.54634280638444,
        "lon": -115.73882826584023,
        "alt_km": 446.0234575829236,
        "timestamp": "2025-12-06T05:40:08.009361+00:00",
        "meta_object_name": "STARLINK-35504",
        "meta_object_id": "2025-253G",
        "meta_epoch": "2025-12-05T06:00:02.000160",
        "meta_mean_motion": 15.40656386,
        "meta_eccentricity": 0.00012203,
        "meta_inclination": 43.0004,
        "meta_ra_of_asc_node": 28.737,
        "meta_arg_of_pericenter": 253.1561,
        "meta_mean_anomaly": 260.557,
        "meta_ephemeris_type": 0,
        "meta_classification_type": "U",
        "meta_norad_cat_id": 66325,
        "meta_element_set_no": 999,
        "meta_rev_at_epoch": 572,
        "meta_bstar": 0.0009792853,
        "meta_mean_motion_dot": 0.00040763,
        "meta_mean_motion_ddot": 0,
        "tle_line1": "1 66325U 25253G   25339.25002315  .00040763  00000+0  97929-3 0  9997",
        "tle_line2": "2 66325  43.0004  28.7370 0001220 253.1561 260.5570 15.40656386  5723"
      },
      "geometry": {
        "type": "Point",
        "coordinates": [
          -115.73882826584023,
          -31.54634280638444
        ]
      }
    }
  ]
}